ORBCOMM FM103 [+]       
1 40091U 14040F   24033.60104728  .00000817  00000+0  22048-3 0  9997
2 40091  47.0038 218.2855 0001845 159.9039 200.1919 14.56258144491098
ORBCOMM FM114 [+]       
1 41179U 15081A   24033.36096510 -.00001839  00000+0 -37421-3 0  9991
2 41179  47.0054 128.7306 0002269 228.4504 131.6187 14.56258604431427
ORBCOMM FM119 [-]       
1 41180U 15081B   24033.39826061  .00000880  00000+0  23450-3 0  9998
2 41180  47.0019  37.7457 0002363 280.4617  79.6002 14.56251293432687
ORBCOMM FM105 [-]       
1 41181U 15081C   24033.93386030  .00000420  00000+0  16667-3 0  9998
2 41181  47.0036 353.2735 0002464 254.4869 105.5739 14.44211805428418
ORBCOMM FM110 [+]       
1 41182U 15081D   24033.40662750  .00000985  00000+0  25789-3 0  9998
2 41182  47.0016 127.9317 0001177 356.5895   3.4981 14.56258133431307
ORBCOMM FM118 [+]       
1 41183U 15081E   24033.38390612  .00001118  00000+0  28778-3 0  9991
2 41183  47.0038 128.3245 0001294 358.3900   1.6980 14.56256007431402
ORBCOMM FM112 [+]       
1 41184U 15081F   24033.37635787  .00001111  00000+0  28619-3 0  9993
2 41184  47.0003  37.0895 0002219 273.2373  86.8258 14.56256120432623
ORBCOMM FM113 [+]       
1 41185U 15081G   24033.01013725  .00000908  00000+0  24072-3 0  9999
2 41185  47.0020  39.0603 0001973 286.2486  73.8181 14.56242788432555
